{
  "type": "FeatureCollection",
  "features": [
    {
      "type": "Feature",
      "properties": {
        "norad_id": 66774,
        "name": "TRANSPORTER-15DN",
        "group": "last-30-days",
        "lat": -6.69846696809125,
        "lon": -111.10769582135995,
        "alt_km": 513.9999383212898,
        "timestamp": "2025-12-24T03:53:28.361809+00:00",
        "meta_object_name": "TRANSPORTER-15DN",
        "meta_object_id": "2025-276DN",
        "meta_epoch": "2025-12-23T17:35:01.379904",
        "meta_mean_motion": 15.18591057,
        "meta_eccentricity": 0.0003053,
        "meta_inclination": 97.4416,
        "meta_ra_of_asc_node": 69.3492,
        "meta_arg_of_pericenter": 97.9717,
        "meta_mean_anomaly": 262.1864,
        "meta_ephemeris_type": 0,
        "meta_classification_type": "U",
        "meta_norad_cat_id": 66774,
        "meta_element_set_no": 999,
        "meta_rev_at_epoch": 379,
        "meta_bstar": 0.00036662,
        "meta_mean_motion_dot": 7.517e-05,
        "meta_mean_motion_ddot": 0,
        "tle_line1": "1 66774U 25276DN  25357.73265486  .00007517  00000+0  36662-3 0  9990",
        "tle_line2": "2 66774  97.4416  69.3492 0003053  97.9717 262.1864 15.18591057  3797"
      },
      "geometry": {
        "type": "Point",
        "coordinates": [
          -111.10769582135995,
          -6.69846696809125
        ]
      }
    },
    {
      "type": "Feature",
      "properties": {
        "norad_id": 66775,
        "name": "PHI 1",
        "group": "last-30-days",
        "lat": -11.155284031807795,
        "lon": -111.72422785577022,
        "alt_km": 515.4278542302582,
        "timestamp": "2025-12-24T03:53:28.361819+00:00",
        "meta_object_name": "PHI 1",
        "meta_object_id": "2025-276DP",
        "meta_epoch": "2025-12-23T19:08:44.532096",
        "meta_mean_motion": 15.18657092,
        "meta_eccentricity": 0.0002859,
        "meta_inclination": 97.4341,
        "meta_ra_of_asc_node": 69.3929,
        "meta_arg_of_pericenter": 67.4002,
        "meta_mean_anomaly": 292.7534,
        "meta_ephemeris_type": 0,
        "meta_classification_type": "U",
        "meta_norad_cat_id": 66775,
        "meta_element_set_no": 999,
        "meta_rev_at_epoch": 380,
        "meta_bstar": 0.00034985,
        "meta_mean_motion_dot": 7.184e-05,
        "meta_mean_motion_ddot": 0,
        "tle_line1": "1 66775U 25276DP  25357.79773764  .00007184  00000+0  34985-3 0  9996",
        "tle_line2": "2 66775  97.4341  69.3929 0002859  67.4002 292.7534 15.18657092  3809"
      },
      "geometry": {
        "type": "Point",
        "coordinates": [
          -111.72422785577022,
          -11.155284031807795
        ]
      }
    },
    {
      "type": "Feature",
      "properties": {
        "norad_id": 66776,
        "name": "TRANSPORTER-15DQ",
        "group": "last-30-days",
        "lat": -13.320598271476525,
        "lon": -112.00886663556545,
        "alt_km": 515.0986486086076,
        "timestamp": "2025-12-24T03:53:28.361829+00:00",
        "meta_object_name": "TRANSPORTER-15DQ",
        "meta_object_id": "2025-276DQ",
        "meta_epoch": "2025-12-23T19:08:11.141952",
        "meta_mean_motion": 15.18706213,
        "meta_eccentricity": 0.000292,
        "meta_inclination": 97.438,
        "meta_ra_of_asc_node": 69.4048,
        "meta_arg_of_pericenter": 83.2721,
        "meta_mean_anomaly": 276.8846,
        "meta_ephemeris_type": 0,
        "meta_classification_type": "U",
        "meta_norad_cat_id": 66776,
        "meta_element_set_no": 999,
        "meta_rev_at_epoch": 380,
        "meta_bstar": 0.00052794,
        "meta_mean_motion_dot": 0.00010896,
        "meta_mean_motion_ddot": 0,
        "tle_line1": "1 66776U 25276DQ  25357.79735118  .00010896  00000+0  52794-3 0  9990",
        "tle_line2": "2 66776  97.4380  69.4048 0002920  83.2721 276.8846 15.18706213  3808"
      },
      "geometry": {
        "type": "Point",
        "coordinates": [
          -112.00886663556545,
          -13.320598271476525
        ]
      }
    },
    {
      "type": "Feature",
      "properties": {
        "norad_id": 66777,
        "name": "TRANSPORTER-15DR",
        "group": "last-30-days",
        "lat": -26.838379258748912,
        "lon": -113.99803014573789,
        "alt_km": 515.199960388939,
        "timestamp": "2025-12-24T03:53:28.361840+00:00",
        "meta_object_name": "TRANSPORTER-15DR",
        "meta_object_id": "2025-276DR",
        "meta_epoch": "2025-12-23T19:04:40.179936",
        "meta_mean_motion": 15.18935109,
        "meta_eccentricity": 0.000354,
        "meta_inclination": 97.4468,
        "meta_ra_of_asc_node": 69.4348,
        "meta_arg_of_pericenter": 109.9406,
        "meta_mean_anomaly": 250.221,
        "meta_ephemeris_type": 0,
        "meta_classification_type": "U",
        "meta_norad_cat_id": 66777,
        "meta_element_set_no": 999,
        "meta_rev_at_epoch": 380,
        "meta_bstar": 0.00052935,
        "meta_mean_motion_dot": 0.00010998,
        "meta_mean_motion_ddot": 0,
        "tle_line1": "1 66777U 25276DR  25357.79490949  .00010998  00000+0  52935-3 0  9991",
        "tle_line2": "2 66777  97.4468  69.4348 0003540 109.9406 250.2210 15.18935109  3803"
      },
      "geometry": {
        "type": "Point",
        "coordinates": [
          -113.99803014573789,
          -26.838379258748912
        ]
      }
    },
    {
      "type": "Feature",
      "properties": {
        "norad_id": 66778,
        "name": "TRANSPORTER-15DS",
        "group": "last-30-days",
        "lat": 41.80172329922027,
        "lon": 62.99780100607343,
        "alt_km": 510.7384380719359,
        "timestamp": "2025-12-24T03:53:28.361851+00:00",
        "meta_object_name": "TRANSPORTER-15DS",
        "meta_object_id": "2025-276DS",
        "meta_epoch": "2025-12-18T19:26:21.991200",
        "meta_mean_motion": 15.16535337,
        "meta_eccentricity": 0.00032319,
        "meta_inclination": 97.4427,
        "meta_ra_of_asc_node": 64.4586,
        "meta_arg_of_pericenter": 41.3734,
        "meta_mean_anomaly": 318.7744,
        "meta_ephemeris_type": 0,
        "meta_classification_type": "U",
        "meta_norad_cat_id": 66778,
        "meta_element_set_no": 999,
        "meta_rev_at_epoch": 304,
        "meta_bstar": 0.00025483693,
        "meta_mean_motion_dot": 4.904e-05,
        "meta_mean_motion_ddot": 0,
        "tle_line1": "1 66778U 25276DS  25352.80997675  .00004904  00000+0  25484-3 0  9996",
        "tle_line2": "2 66778  97.4427  64.4586 0003231  41.3734 318.7744 15.16535337  3043"
      },
      "geometry": {
        "type": "Point",
        "coordinates": [
          62.99780100607343,
          41.80172329922027
        ]
      }
    },
    {
      "type": "Feature",
      "properties": {
        "norad_id": 66791,
        "name": "STARLINK-35867",
        "group": "last-30-days",
        "lat": -10.064118340035753,
        "lon": 14.41320433801589,
        "alt_km": 419.7567831784927,
        "timestamp": "2025-12-24T03:53:28.361864+00:00",
        "meta_object_name": "STARLINK-35867",
        "meta_object_id": "2025-278A",
        "meta_epoch": "2025-12-23T20:00:01.000224",
        "meta_mean_motion": 15.5071195,
        "meta_eccentricity": 0.0001761,
        "meta_inclination": 42.9994,
        "meta_ra_of_asc_node": 185.3551,
        "meta_arg_of_pericenter": 277.2462,
        "meta_mean_anomaly": 240.7416,
        "meta_ephemeris_type": 0,
        "meta_classification_type": "U",
        "meta_norad_cat_id": 66791,
        "meta_element_set_no": 999,
        "meta_rev_at_epoch": 474,
        "meta_bstar": -0.039042,
        "meta_mean_motion_dot": -0.02050039,
        "meta_mean_motion_ddot": 0,
        "tle_line1": "1 66791U 25278A   25357.83334491 -.02050039  00000+0 -39042-1 0  9999",
        "tle_line2": "2 66791  42.9994 185.3551 0001761 277.2462 240.7416 15.50711950  4744"
      },
      "geometry": {
        "type": "Point",
        "coordinates": [
          14.41320433801589,
          -10.064118340035753
        ]
      }
    },
    {
      "type": "Feature",
      "properties": {
        "norad_id": 66792,
        "name": "STARLINK-35990",
        "group": "last-30-days",
        "lat": -11.825367052711385,
        "lon": 16.409981768506956,
        "alt_km": 415.86563394964196,
        "timestamp": "2025-12-24T03:53:28.361875+00:00",
        "meta_object_name": "STARLINK-35990",
        "meta_object_id": "2025-278B",
        "meta_epoch": "2025-12-23T20:00:01.000224",
        "meta_mean_motion": 15.50515015,
        "meta_eccentricity": 0.0001787,
        "meta_inclination": 42.9996,
        "meta_ra_of_asc_node": 185.3489,
        "meta_arg_of_pericenter": 265.2354,
        "meta_mean_anomaly": 254.7193,
        "meta_ephemeris_type": 0,
        "meta_classification_type": "U",
        "meta_norad_cat_id": 66792,
        "meta_element_set_no": 999,
        "meta_rev_at_epoch": 474,
        "meta_bstar": 0.0010115,
        "meta_mean_motion_dot": 0.00059317,
        "meta_mean_motion_ddot": 0,
        "tle_line1": "1 66792U 25278B   25357.83334491  .00059317  00000+0  10115-2 0  9995",
        "tle_line2": "2 66792  42.9996 185.3489 0001787 265.2354 254.7193 15.50515015  4743"
      },
      "geometry": {
        "type": "Point",
        "coordinates": [
          16.409981768506956,
          -11.825367052711385
        ]
      }
    }
  ]
}